GSAT-29                 
1 43698U 18089A   26194.50063883  .00000080  00000+0  00000+0 0  9997
2 43698   0.0575 245.9336 0002940 198.8549  81.9276  1.00275303 28059
ES'HAIL 2               
1 43700U 18090A   26194.49483214  .00000140  00000+0  00000+0 0  9992
2 43700   0.0032 113.6818 0002154  45.9089 335.7013  1.00269984 27949
GEO-KOMPSAT-2A          
1 43823U 18100A   26194.51510824 -.00000348  00000+0  00000+0 0  9992
2 43823   0.0269 111.4967 0001940 350.4228 143.1742  1.00270535 27897
GSAT-11                 
1 43824U 18100B   26194.50436551 -.00000081  00000+0  00000+0 0  9990
2 43824   0.0564 257.4092 0007634 200.0618  89.4854  1.00270911 27743
GSAT-7A                 
1 43864U 18105A   26194.50211219  .00000023  00000+0  00000+0 0  9996
2 43864   0.0803  91.6475 0001625  18.8794  64.3580  1.00270579 27715
COSMOS 2533             
1 43867U 18107A   26194.21839951 -.00000040  00000+0  00000+0 0  9998
2 43867   0.0419 118.3625 0001032 127.4281 193.9113  1.00270459 27702
TJS-3                   
1 43874U 18110A   26193.70512161 -.00000219  00000+0  00000+0 0  9992
2 43874   2.6080  80.1842 0002500  89.7413 162.7272  1.00272312 27673
ZHONGXING-2D            
1 43920U 19001A   26194.60525301  .00000000  00000+0  00000+0 0  9991
2 43920   0.0206 258.3286 0000332  55.8861 325.1520  1.00269442 54345
HELLAS-SAT 4 & SGS-1    
1 44034U 19007A   26194.49743215  .00000149  00000+0  00000+0 0  9991
2 44034   0.0680 124.3761 0005599  22.0651   3.0107  1.00269823 27639
GSAT-31                 
1 44035U 19007B   26194.49916551  .00000122  00000+0  00000+0 0  9998
2 44035   0.0159  77.9433 0000784 157.0538 283.9491  1.00269962 27239
NUSANTARA SATU          
1 44048U 19009A   26194.52515207 -.00000239  00000+0  00000+0 0  9991
2 44048   0.0316 124.8301 0004679   6.3551 135.2754  1.00270313 27033
ZHONGXING-6C            
1 44067U 19012A   26194.57614854 -.00000339  00000+0  00000+0 0  9990
2 44067   0.0870  73.8501 0014532 339.5082 215.9623  1.00271550 27005
WGS 10 (USA 291)        
1 44071U 19014A   26194.43031000  .00000043  00000+0  00000+0 0  9999
2 44071   0.0177  42.8249 0000282 229.0524 234.6442  1.00271368 26885
TIANLIAN 2-01           
1 44076U 19017A   26194.50497220 -.00000111  00000+0  00000+0 0  9992
2 44076   0.6055  83.0553 0001440  81.0039  26.1300  1.00270809 26910
ARABSAT-6A              
1 44186U 19021A   26193.92546229  .00000153  00000+0  00000+0 0  9993
2 44186   0.0475  19.2498 0001387 251.0676  24.2111  1.00277360 26410
BEIDOU-3 IGSO-1         
1 44204U 19023A   26194.49395858 -.00000204  00000+0  00000+0 0  9997
2 44204  58.7323  37.3789 0025735 224.1077 326.8165  1.00283496  7478
BEIDOU-2 G8             
1 44231U 19027A   26194.51831493 -.00000252  00000+0  00000+0 0  9997
2 44231   1.7214  74.4975 0009754 282.2857 265.7260  1.00272179 26348
YAMAL 601               
1 44307U 19031A   26194.64201770  .00000116  00000+0  00000+0 0  9997
2 44307   0.0143  80.1639 0002229  27.4459 104.0286  1.00270466 26196
AT&T T-16               
1 44333U 19034A   26194.51503030 -.00000119  00000+0  00000+0 0  9993
2 44333   0.0137  58.5667 0000629 259.4075  57.9662  1.00268521 25890
EUTELSAT 7C             
1 44334U 19034B   26194.06334404  .00000047  00000+0  00000+0 0  9990
2 44334   0.0771 181.5598 0003166 280.9023 218.3036  1.00271209  7093
BEIDOU-3 IGSO-2         
1 44337U 19035A   26194.29948845 -.00000127  00000+0  00000+0 0  9999
2 44337  55.2503 158.6338 0039601 216.6143 142.3714  1.00258153 25924
COSMOS 2539             
1 44457U 19048A   26193.99306976  .00000079  00000+0  00000+0 0  9990
2 44457   0.0366  99.6513 0000338  20.7864 179.9318  1.00271104 25488
EDRS-C                  
1 44475U 19049A   26194.52307764 -.00000266  00000+0  00000+0 0  9996
2 44475   0.0142 103.9960 0000873  24.8482 133.3569  1.00271442 25476
INTELSAT 39 (IS-39)     
1 44476U 19049B   26194.50202551  .00000000  00000+0  00000+0 0  9998
2 44476   0.0272  48.3641 0000931 279.4001 206.2973  1.00269592 25392
AMOS-17                 
1 44479U 19050A   26194.35047720  .00000106  00000+0  00000+0 0  9998
2 44479   0.0151  10.0244 0001275 109.3182 315.0421  1.00272801 25449
AEHF-5 (USA 292)        
1 44481U 19051A   26194.50800155 -.00000260  00000+0  00000+0 0  9990
2 44481   1.4328 338.2679 0065002 357.6518 231.3868  1.00274249 25521
EUTELSAT 5 WEST B       
1 44624U 19067A   26194.34614383 -.00000045  00000+0  00000+0 0  9995
2 44624   0.0622 355.1296 0002968 118.4870 297.2142  1.00271530 24694
MEV-1                   
1 44625U 19067B   26167.92963140 -.00000149  00000+0  00000+0 0  9993
2 44625   0.8740 268.9828 0002794 179.8034 307.2103  1.00269616 61744
TJS-4                   
1 44637U 19070A   26194.36365059 -.00000172  00000+0  00000+0 0  9999
2 44637   0.0793  87.0599 0003155 320.6281  97.9879  1.00269303 24806
TIBA-1                  
1 44800U 19080A   26194.49673882  .00000152  00000+0  00000+0 0  9999
2 44800   0.0513  10.8905 0001837 115.4397  19.3435  1.00269887 24326
INMARSAT GX5            
1 44801U 19080B   26193.92156228  .00000074  00000+0  00000+0 0  9990
2 44801   0.0437  35.4675 0001959  73.5798 164.5479  1.00272798  7049
JCSAT-18 (KACIFIC 1)    
1 44868U 19091A   26193.80656084 -.00000201  00000+0  00000+0 0  9990
2 44868   0.0465 228.9604 0000409  15.3239 126.7699  1.00273107 24269
