OBJECT_NAME,OBJECT_ID,EPOCH,MEAN_MOTION,ECCENTRICITY,INCLINATION,RA_OF_ASC_NODE,ARG_OF_PERICENTER,MEAN_ANOMALY,EPHEMERIS_TYPE,CLASSIFICATION_TYPE,NORAD_CAT_ID,ELEMENT_SET_NO,REV_AT_EPOCH,BSTAR,MEAN_MOTION_DOT,MEAN_MOTION_DDOT
GSAT-29,2018-089A,2026-07-13T12:00:55.194912,1.00275303,.000294,0.0575,245.9336,198.8549,81.9276,0,U,43698,999,2805,0,.8E-6,0
ES'HAIL 2,2018-090A,2026-07-13T11:52:33.496896,1.00269984,.0002154,0.0032,113.6818,45.9089,335.7013,0,U,43700,999,2794,0,.14E-5,0
GEO-KOMPSAT-2A,2018-100A,2026-07-13T12:21:45.351936,1.00270535,.000194,0.0269,111.4967,350.4228,143.1742,0,U,43823,999,2789,0,-.348E-5,0
GSAT-11,2018-100B,2026-07-13T12:06:17.180064,1.00270911,.0007634,0.0564,257.4092,200.0618,89.4854,0,U,43824,999,2774,0,-.81E-6,0
GSAT-7A,2018-105A,2026-07-13T12:03:02.493216,1.00270579,.0001625,0.0803,91.6475,18.8794,64.3580,0,U,43864,999,2771,0,.23E-6,0
COSMOS 2533,2018-107A,2026-07-13T05:14:29.717664,1.00270459,.0001032,0.0419,118.3625,127.4281,193.9113,0,U,43867,999,2770,0,-.4E-6,0
TJS-3,2018-110A,2026-07-12T16:55:22.507104,1.00272312,.00025,2.6080,80.1842,89.7413,162.7272,0,U,43874,999,2767,0,-.219E-5,0
ZHONGXING-2D,2019-001A,2026-07-13T14:31:33.860064,1.00269442,.0000332,0.0206,258.3286,55.8861,325.1520,0,U,43920,999,5434,0,0,0
HELLAS-SAT 4 & SGS-1,2019-007A,2026-07-13T11:56:18.137760,1.00269823,.0005599,0.0680,124.3761,22.0651,3.0107,0,U,44034,999,2763,0,.149E-5,0
GSAT-31,2019-007B,2026-07-13T11:58:47.900064,1.00269962,.0000784,0.0159,77.9433,157.0538,283.9491,0,U,44035,999,2723,0,.122E-5,0
NUSANTARA SATU,2019-009A,2026-07-13T12:36:13.138848,1.00270313,.0004679,0.0316,124.8301,6.3551,135.2754,0,U,44048,999,2703,0,-.239E-5,0
ZHONGXING-6C,2019-012A,2026-07-13T13:49:39.233856,1.00271550,.0014532,0.0870,73.8501,339.5082,215.9623,0,U,44067,999,2700,0,-.339E-5,0
WGS 10 (USA 291),2019-014A,2026-07-13T10:19:38.784000,1.00271368,.0000282,0.0177,42.8249,229.0524,234.6442,0,U,44071,999,2688,0,.43E-6,0
TIANLIAN 2-01,2019-017A,2026-07-13T12:07:09.598080,1.00270809,.000144,0.6055,83.0553,81.0039,26.1300,0,U,44076,999,2691,0,-.111E-5,0
ARABSAT-6A,2019-021A,2026-07-12T22:12:39.941856,1.00277360,.00013872,0.0475,19.2498,251.0676,24.2111,0,U,44186,999,2641,0,.153E-5,0
BEIDOU-3 IGSO-1,2019-023A,2026-07-13T11:51:18.021312,1.00283496,.0025735,58.7323,37.3789,224.1077,326.8165,0,U,44204,999,747,0,-.204E-5,0
BEIDOU-2 G8,2019-027A,2026-07-13T12:26:22.409952,1.00272179,.0009754,1.7214,74.4975,282.2857,265.7260,0,U,44231,999,2634,0,-.252E-5,0
YAMAL 601,2019-031A,2026-07-13T15:24:30.329280,1.00270466,.0002229,0.0143,80.1639,27.4459,104.0286,0,U,44307,999,2619,0,.116E-5,0
AT&T T-16,2019-034A,2026-07-13T12:21:38.617920,1.00268521,.0000629,0.0137,58.5667,259.4075,57.9662,0,U,44333,999,2589,0,-.119E-5,0
EUTELSAT 7C,2019-034B,2026-07-13T01:31:12.925056,1.00271209,.00031663,0.0771,181.5598,280.9023,218.3036,0,U,44334,999,709,0,.47E-6,0
BEIDOU-3 IGSO-2,2019-035A,2026-07-13T07:11:15.802080,1.00258153,.0039601,55.2503,158.6338,216.6143,142.3714,0,U,44337,999,2592,0,-.127E-5,0
COSMOS 2539,2019-048A,2026-07-12T23:50:01.227264,1.00271104,.00003389,0.0366,99.6513,20.7864,179.9318,0,U,44457,999,2548,0,.79E-6,0
EDRS-C,2019-049A,2026-07-13T12:33:13.908096,1.00271442,.0000873,0.0142,103.9960,24.8482,133.3569,0,U,44475,999,2547,0,-.266E-5,0
INTELSAT 39 (IS-39),2019-049B,2026-07-13T12:02:55.004064,1.00269592,.0000931,0.0272,48.3641,279.4001,206.2973,0,U,44476,999,2539,0,0,0
AMOS-17,2019-050A,2026-07-13T08:24:41.230080,1.00272801,.0001275,0.0151,10.0244,109.3182,315.0421,0,U,44479,999,2544,0,.106E-5,0
AEHF-5 (USA 292),2019-051A,2026-07-13T12:11:31.333920,1.00274249,.0065002,1.4328,338.2679,357.6518,231.3868,0,U,44481,999,2552,0,-.26E-5,0
EUTELSAT 5 WEST B,2019-067A,2026-07-13T08:18:26.826912,1.00271530,.0002968,0.0622,355.1296,118.4870,297.2142,0,U,44624,999,2469,0,-.45E-6,0
MEV-1,2019-067B,2026-06-16T22:18:40.152960,1.00269616,.00027946,0.8740,268.9828,179.8034,307.2103,0,U,44625,999,6174,0,-.149E-5,0
TJS-4,2019-070A,2026-07-13T08:43:39.410976,1.00269303,.0003155,0.0793,87.0599,320.6281,97.9879,0,U,44637,999,2480,0,-.172E-5,0
TIBA-1,2019-080A,2026-07-13T11:55:18.234048,1.00269887,.0001837,0.0513,10.8905,115.4397,19.3435,0,U,44800,999,2432,0,.152E-5,0
INMARSAT GX5,2019-080B,2026-07-12T22:07:02.980992,1.00272798,.0001959,0.0437,35.4675,73.5798,164.5479,0,U,44801,999,704,0,.74E-6,0
JCSAT-18 (KACIFIC 1),2019-091A,2026-07-12T19:21:26.856576,1.00273107,.00004095,0.0465,228.9604,15.3239,126.7699,0,U,44868,999,2426,0,-.201E-5,0
